{"fetched_at":"2026-07-14T17:40:51.802Z","source":"https://celestrak.org/NORAD/elements/gp.php?NAME=JILIN&FORMAT=JSON","constellation":"jilin-1-kuanfu","records":[{"OBJECT_NAME":"JILIN-1 KUANFU 01","OBJECT_ID":"2020-003A","EPOCH":"2026-07-14T04:13:07.836960","CLASSIFICATION_TYPE":"U","MEAN_MOTION":15.10863927,"ECCENTRICITY":0.0009168,"INCLINATION":97.5021,"RA_OF_ASC_NODE":268.6052,"ARG_OF_PERICENTER":200.6778,"MEAN_ANOMALY":159.4082,"EPHEMERIS_TYPE":0,"NORAD_CAT_ID":45016,"ELEMENT_SET_NO":999,"REV_AT_EPOCH":35940,"BSTAR":0.000093709,"MEAN_MOTION_DOT":0.00001496,"MEAN_MOTION_DDOT":0},{"OBJECT_NAME":"JILIN-1 KUANFU-01B","OBJECT_ID":"2021-061A","EPOCH":"2026-07-14T05:07:52.586112","CLASSIFICATION_TYPE":"U","MEAN_MOTION":15.09807077,"ECCENTRICITY":0.0006124,"INCLINATION":97.5211,"RA_OF_ASC_NODE":270.905,"ARG_OF_PERICENTER":340.4409,"MEAN_ANOMALY":19.6584,"EPHEMERIS_TYPE":0,"NORAD_CAT_ID":49003,"ELEMENT_SET_NO":999,"REV_AT_EPOCH":27742,"BSTAR":0.0001259,"MEAN_MOTION_DOT":0.00001972,"MEAN_MOTION_DDOT":0},{"OBJECT_NAME":"JILIN-1 KUANFU 01C","OBJECT_ID":"2022-048A","EPOCH":"2026-07-14T04:55:59.131200","CLASSIFICATION_TYPE":"U","MEAN_MOTION":15.09597137,"ECCENTRICITY":0.0017258,"INCLINATION":97.525,"RA_OF_ASC_NODE":271.8867,"ARG_OF_PERICENTER":223.777,"MEAN_ANOMALY":136.2092,"EPHEMERIS_TYPE":0,"NORAD_CAT_ID":52443,"ELEMENT_SET_NO":999,"REV_AT_EPOCH":23127,"BSTAR":0.000093975,"MEAN_MOTION_DOT":0.00001451,"MEAN_MOTION_DDOT":0},{"OBJECT_NAME":"JILIN-1 KUANFU 02A","OBJECT_ID":"2023-127A","EPOCH":"2026-07-14T05:24:55.296864","CLASSIFICATION_TYPE":"U","MEAN_MOTION":15.10807013,"ECCENTRICITY":0.0010238,"INCLINATION":97.5572,"RA_OF_ASC_NODE":288.7027,"ARG_OF_PERICENTER":240.5083,"MEAN_ANOMALY":119.5126,"EPHEMERIS_TYPE":0,"NORAD_CAT_ID":57696,"ELEMENT_SET_NO":999,"REV_AT_EPOCH":15971,"BSTAR":0.00013968,"MEAN_MOTION_DOT":0.00002258,"MEAN_MOTION_DDOT":0},{"OBJECT_NAME":"JILIN-01 KUANFU 02B 1","OBJECT_ID":"2024-169A","EPOCH":"2026-07-14T04:07:36.009984","CLASSIFICATION_TYPE":"U","MEAN_MOTION":15.09053965,"ECCENTRICITY":0.000161,"INCLINATION":97.5576,"RA_OF_ASC_NODE":284.2801,"ARG_OF_PERICENTER":346.4305,"MEAN_ANOMALY":13.688,"EPHEMERIS_TYPE":0,"NORAD_CAT_ID":61189,"ELEMENT_SET_NO":999,"REV_AT_EPOCH":9989,"BSTAR":0.00012145,"MEAN_MOTION_DOT":0.0000186,"MEAN_MOTION_DDOT":0},{"OBJECT_NAME":"JILIN-01 KUANFU 02B 2","OBJECT_ID":"2024-169B","EPOCH":"2026-07-14T05:13:42.085344","CLASSIFICATION_TYPE":"U","MEAN_MOTION":15.09014716,"ECCENTRICITY":0.0004853,"INCLINATION":97.557,"RA_OF_ASC_NODE":283.7102,"ARG_OF_PERICENTER":284.0139,"MEAN_ANOMALY":76.055,"EPHEMERIS_TYPE":0,"NORAD_CAT_ID":61190,"ELEMENT_SET_NO":999,"REV_AT_EPOCH":9990,"BSTAR":0.000113,"MEAN_MOTION_DOT":0.00001724,"MEAN_MOTION_DDOT":0},{"OBJECT_NAME":"JILIN-01 KUANFU 02B 3","OBJECT_ID":"2024-169C","EPOCH":"2026-07-14T05:26:36.898080","CLASSIFICATION_TYPE":"U","MEAN_MOTION":15.09053859,"ECCENTRICITY":0.0012966,"INCLINATION":97.5568,"RA_OF_ASC_NODE":284.1518,"ARG_OF_PERICENTER":208.9113,"MEAN_ANOMALY":151.1398,"EPHEMERIS_TYPE":0,"NORAD_CAT_ID":61191,"ELEMENT_SET_NO":999,"REV_AT_EPOCH":9990,"BSTAR":0.000095355,"MEAN_MOTION_DOT":0.00001448,"MEAN_MOTION_DDOT":0},{"OBJECT_NAME":"JILIN-01 KUANFU 02B 4","OBJECT_ID":"2024-169D","EPOCH":"2026-07-14T04:41:38.709888","CLASSIFICATION_TYPE":"U","MEAN_MOTION":15.09038554,"ECCENTRICITY":0.0013925,"INCLINATION":97.5533,"RA_OF_ASC_NODE":283.6478,"ARG_OF_PERICENTER":167.2729,"MEAN_ANOMALY":192.8854,"EPHEMERIS_TYPE":0,"NORAD_CAT_ID":61192,"ELEMENT_SET_NO":999,"REV_AT_EPOCH":9990,"BSTAR":0.0001724,"MEAN_MOTION_DOT":0.0000267,"MEAN_MOTION_DDOT":0},{"OBJECT_NAME":"JILIN-01 KUANFU 02B 5","OBJECT_ID":"2024-169E","EPOCH":"2026-07-14T04:23:00.004416","CLASSIFICATION_TYPE":"U","MEAN_MOTION":15.09072995,"ECCENTRICITY":0.0013124,"INCLINATION":97.5584,"RA_OF_ASC_NODE":284.4313,"ARG_OF_PERICENTER":190.5948,"MEAN_ANOMALY":169.5006,"EPHEMERIS_TYPE":0,"NORAD_CAT_ID":61193,"ELEMENT_SET_NO":999,"REV_AT_EPOCH":9990,"BSTAR":0.00013391,"MEAN_MOTION_DOT":0.00002061,"MEAN_MOTION_DDOT":0},{"OBJECT_NAME":"JILIN-01 KUANFU 02B 6","OBJECT_ID":"2024-169F","EPOCH":"2026-07-14T04:56:59.438400","CLASSIFICATION_TYPE":"U","MEAN_MOTION":15.09029985,"ECCENTRICITY":0.0015519,"INCLINATION":97.5559,"RA_OF_ASC_NODE":284.3475,"ARG_OF_PERICENTER":224.9696,"MEAN_ANOMALY":135.0277,"EPHEMERIS_TYPE":0,"NORAD_CAT_ID":61194,"ELEMENT_SET_NO":999,"REV_AT_EPOCH":9991,"BSTAR":0.00013059,"MEAN_MOTION_DOT":0.00002007,"MEAN_MOTION_DDOT":0}]}
