JILIN-1 KUANFU 01       
1 45016U 20003A   26195.17578515  .00001496  00000+0  93709-4 0  9994
2 45016  97.5021 268.6052 0009168 200.6778 159.4082 15.10863927359407
JILIN-1 KUANFU-01B      
1 49003U 21061A   26195.21380308  .00001972  00000+0  12590-3 0  9992
2 49003  97.5211 270.9050 0006124 340.4409  19.6584 15.09807077277422
JILIN-1 KUANFU 01C      
1 52443U 22048A   26195.20554550  .00001451  00000+0  93975-4 0  9990
2 52443  97.5250 271.8867 0017258 223.7770 136.2092 15.09597137231273
JILIN-1 KUANFU 02A      
1 57696U 23127A   26195.22564001  .00002258  00000+0  13968-3 0  9997
2 57696  97.5572 288.7027 0010238 240.5083 119.5126 15.10807013159714
JILIN-01 KUANFU 02B 1   
1 61189U 24169A   26195.17194456  .00001860  00000+0  12145-3 0  9997
2 61189  97.5576 284.2801 0001610 346.4305  13.6880 15.09053965 99898
JILIN-01 KUANFU 02B 2   
1 61190U 24169B   26195.21784821  .00001724  00000+0  11300-3 0  9996
2 61190  97.5570 283.7102 0004853 284.0139  76.0550 15.09014716 99906
JILIN-01 KUANFU 02B 3   
1 61191U 24169C   26195.22681595  .00001448  00000+0  95355-4 0  9998
2 61191  97.5568 284.1518 0012966 208.9113 151.1398 15.09053859 99907
JILIN-01 KUANFU 02B 4   
1 61192U 24169D   26195.19558692  .00002670  00000+0  17240-3 0  9990
2 61192  97.5533 283.6478 0013925 167.2729 192.8854 15.09038554 99909
JILIN-01 KUANFU 02B 5   
1 61193U 24169E   26195.18263894  .00002061  00000+0  13391-3 0  9994
2 61193  97.5584 284.4313 0013124 190.5948 169.5006 15.09072995 99903
JILIN-01 KUANFU 02B 6   
1 61194U 24169F   26195.20624350  .00002007  00000+0  13059-3 0  9997
2 61194  97.5559 284.3475 0015519 224.9696 135.0277 15.09029985 99916
